{"type": "FeatureCollection", "features": [ {"type": "Feature", "properties": {"norad_id": 45807, "name": "BEIDOU-3 G3 (C61)", "group": "gnss", "lat": -0.5465313958782965, "lon": -98.22076244978791, "alt_km": 35798.42638258295, "timestamp": "2025-12-24T03:53:29.891595+00:00", "meta": {"OBJECT_NAME": "BEIDOU-3 G3 (C61)", "OBJECT_ID": "2020-040A", "EPOCH": "2025-12-23T06:48:37.677024", "MEAN_MOTION": 1.00268803, "ECCENTRICITY": 0.00065635, "INCLINATION": 2.0151, "RA_OF_ASC_NODE": 66.6726, "ARG_OF_PERICENTER": 309.252, "MEAN_ANOMALY": 288.8631, "EPHEMERIS_TYPE": 0, "CLASSIFICATION_TYPE": "U", "NORAD_CAT_ID": 45807, "ELEMENT_SET_NO": 999, "REV_AT_EPOCH": 2030, "BSTAR": 0, "MEAN_MOTION_DOT": -3.33e-06, "MEAN_MOTION_DDOT": 0}, "tle": {"line1": "1 45807U 20040A   25357.28376941 -.00000333  00000+0  00000+0 0  9990", "line2": "2 45807   2.0151  66.6726 0006563 309.2520 288.8631  1.00268803 20308"}}, "geometry": {"type": "Point", "coordinates": [-98.22076244978791, -0.5465313958782965]}}, {"type": "Feature", "properties": {"norad_id": 45854, "name": "GPS BIII-3  (PRN 23)", "group": "gnss", "lat": -37.96438611533686, "lon": 4.725939784601631, "alt_km": 20237.661450117128, "timestamp": "2025-12-24T03:53:29.891609+00:00", "meta": {"OBJECT_NAME": "GPS BIII-3  (PRN 23)", "OBJECT_ID": "2020-041A", "EPOCH": "2025-12-23T05:38:15.042912", "MEAN_MOTION": 2.00561767, "ECCENTRICITY": 0.00606523, "INCLINATION": 56.5539, "RA_OF_ASC_NODE": 35.7774, "ARG_OF_PERICENTER": 203.7074, "MEAN_ANOMALY": 158.6734, "EPHEMERIS_TYPE": 0, "CLASSIFICATION_TYPE": "U", "NORAD_CAT_ID": 45854, "ELEMENT_SET_NO": 999, "REV_AT_EPOCH": 4051, "BSTAR": 0, "MEAN_MOTION_DOT": -5e-07, "MEAN_MOTION_DDOT": 0}, "tle": {"line1": "1 45854U 20041A   25357.23489633 -.00000050  00000+0  00000+0 0  9997", "line2": "2 45854  56.5539  35.7774 0060652 203.7074 158.6734  2.00561767 40514"}}, "geometry": {"type": "Point", "coordinates": [4.725939784601631, -37.96438611533686]}}, {"type": "Feature", "properties": {"norad_id": 46114, "name": "GALAXY 30 (WAAS/PRN 135)", "group": "gnss", "lat": 0.01055192736252687, "lon": 26.327646836901106, "alt_km": 35790.597808602586, "timestamp": "2025-12-24T03:53:29.891623+00:00", "meta": {"OBJECT_NAME": "GALAXY 30 (WAAS/PRN 135)", "OBJECT_ID": "2020-056C", "EPOCH": "2025-12-23T03:38:39.356160", "MEAN_MOTION": 1.00270214, "ECCENTRICITY": 0.00020157, "INCLINATION": 0.0188, "RA_OF_ASC_NODE": 12.6466, "ARG_OF_PERICENTER": 254.5213, "MEAN_ANOMALY": 114.4446, "EPHEMERIS_TYPE": 0, "CLASSIFICATION_TYPE": "U", "NORAD_CAT_ID": 46114, "ELEMENT_SET_NO": 999, "REV_AT_EPOCH": 1952, "BSTAR": 0, "MEAN_MOTION_DOT": 5.8e-07, "MEAN_MOTION_DDOT": 0}, "tle": {"line1": "1 46114U 20056C   25357.15184440  .00000058  00000+0  00000+0 0  9999", "line2": "2 46114   0.0188  12.6466 0002015 254.5213 114.4446  1.00270214 19528"}}, "geometry": {"type": "Point", "coordinates": [26.327646836901106, 0.01055192736252687]}}, {"type": "Feature", "properties": {"norad_id": 46805, "name": "COSMOS 2547 (705K)", "group": "gnss", "lat": -12.48062978872561, "lon": 24.360374215507864, "alt_km": 19119.18919982146, "timestamp": "2025-12-24T03:53:29.891635+00:00", "meta": {"OBJECT_NAME": "COSMOS 2547 (705K)", "OBJECT_ID": "2020-075A", "EPOCH": "2025-12-22T23:18:06.854688", "MEAN_MOTION": 2.13100221, "ECCENTRICITY": 0.00061066, "INCLINATION": 64.5968, "RA_OF_ASC_NODE": 198.3547, "ARG_OF_PERICENTER": 227.5279, "MEAN_ANOMALY": 132.4843, "EPHEMERIS_TYPE": 0, "CLASSIFICATION_TYPE": "U", "NORAD_CAT_ID": 46805, "ELEMENT_SET_NO": 999, "REV_AT_EPOCH": 4015, "BSTAR": 0, "MEAN_MOTION_DOT": 9.5e-07, "MEAN_MOTION_DDOT": 0}, "tle": {"line1": "1 46805U 20075A   25356.97091267  .00000095  00000+0  00000+0 0  9991", "line2": "2 46805  64.5968 198.3547 0006106 227.5279 132.4843  2.13100221 40154"}}, "geometry": {"type": "Point", "coordinates": [24.360374215507864, -12.48062978872561]}}, {"type": "Feature", "properties": {"norad_id": 46826, "name": "GPS BIII-4  (PRN 14)", "group": "gnss", "lat": -51.76020179599051, "lon": 150.6604678299777, "alt_km": 20157.18119422392, "timestamp": "2025-12-24T03:53:29.891646+00:00", "meta": {"OBJECT_NAME": "GPS BIII-4  (PRN 14)", "OBJECT_ID": "2020-078A", "EPOCH": "2025-12-16T01:06:13.902336", "MEAN_MOTION": 2.00566891, "ECCENTRICITY": 0.0064754, "INCLINATION": 54.0144, "RA_OF_ASC_NODE": 218.2068, "ARG_OF_PERICENTER": 203.3802, "MEAN_ANOMALY": 339.3962, "EPHEMERIS_TYPE": 0, "CLASSIFICATION_TYPE": "U", "NORAD_CAT_ID": 46826, "ELEMENT_SET_NO": 999, "REV_AT_EPOCH": 3783, "BSTAR": 0, "MEAN_MOTION_DOT": 6.7e-07, "MEAN_MOTION_DDOT": 0}, "tle": {"line1": "1 46826U 20078A   25350.04599424  .00000067  00000+0  00000+0 0  9996", "line2": "2 46826  54.0144 218.2068 0064754 203.3802 339.3962  2.00566891 37830"}}, "geometry": {"type": "Point", "coordinates": [150.6604678299777, -51.76020179599051]}}, {"type": "Feature", "properties": {"norad_id": 48859, "name": "GPS BIII-5  (PRN 11)", "group": "gnss", "lat": 51.503861478679234, "lon": 98.73040163360432, "alt_km": 20215.586066224158, "timestamp": "2025-12-24T03:53:29.891658+00:00", "meta": {"OBJECT_NAME": "GPS BIII-5  (PRN 11)", "OBJECT_ID": "2021-054A", "EPOCH": "2025-12-08T04:14:32.423424", "MEAN_MOTION": 2.00553627, "ECCENTRICITY": 0.0024678, "INCLINATION": 55.2581, "RA_OF_ASC_NODE": 340.1367, "ARG_OF_PERICENTER": 233.3993, "MEAN_ANOMALY": 212.8594, "EPHEMERIS_TYPE": 0, "CLASSIFICATION_TYPE": "U", "NORAD_CAT_ID": 48859, "ELEMENT_SET_NO": 999, "REV_AT_EPOCH": 3292, "BSTAR": 0, "MEAN_MOTION_DOT": -8.6e-07, "MEAN_MOTION_DDOT": 0}, "tle": {"line1": "1 48859U 21054A   25342.17676416 -.00000086  00000+0  00000+0 0  9993", "line2": "2 48859  55.2581 340.1367 0024678 233.3993 212.8594  2.00553627 32922"}}, "geometry": {"type": "Point", "coordinates": [98.73040163360432, 51.503861478679234]}}, {"type": "Feature", "properties": {"norad_id": 49336, "name": "QZS-1R (QZSS/PRN 196)", "group": "gnss", "lat": -8.92238718520522, "lon": -85.83140607586054, "alt_km": 34826.10311571501, "timestamp": "2025-12-24T03:53:29.891670+00:00", "meta": {"OBJECT_NAME": "QZS-1R (QZSS/PRN 196)", "OBJECT_ID": "2021-096A", "EPOCH": "2025-12-23T14:03:59.720832", "MEAN_MOTION": 1.00253792, "ECCENTRICITY": 0.075749, "INCLINATION": 37.0985, "RA_OF_ASC_NODE": 82.1998, "ARG_OF_PERICENTER": 271.5244, "MEAN_ANOMALY": 83.7292, "EPHEMERIS_TYPE": 0, "CLASSIFICATION_TYPE": "U", "NORAD_CAT_ID": 49336, "ELEMENT_SET_NO": 999, "REV_AT_EPOCH": 1525, "BSTAR": 0, "MEAN_MOTION_DOT": -2.42e-06, "MEAN_MOTION_DDOT": 0}, "tle": {"line1": "1 49336U 21096A   25357.58610788 -.00000242  00000+0  00000+0 0  9995", "line2": "2 49336  37.0985  82.1998 0757490 271.5244  83.7292  1.00253792 15256"}}, "geometry": {"type": "Point", "coordinates": [-85.83140607586054, -8.92238718520522]}}, {"type": "Feature", "properties": {"norad_id": 49809, "name": "GSAT0223 (GALILEO 27)", "group": "gnss", "lat": -14.0095274929566, "lon": -22.85938840811122, "alt_km": 23223.43317141766, "timestamp": "2025-12-24T03:53:29.891682+00:00", "meta": {"OBJECT_NAME": "GSAT0223 (GALILEO 27)", "OBJECT_ID": "2021-116A", "EPOCH": "2025-12-22T17:26:14.878176", "MEAN_MOTION": 1.70475871, "ECCENTRICITY": 0.000441, "INCLINATION": 57.2174, "RA_OF_ASC_NODE": 346.4438, "ARG_OF_PERICENTER": 255.815, "MEAN_ANOMALY": 286.3499, "EPHEMERIS_TYPE": 0, "CLASSIFICATION_TYPE": "U", "NORAD_CAT_ID": 49809, "ELEMENT_SET_NO": 999, "REV_AT_EPOCH": 2517, "BSTAR": 0, "MEAN_MOTION_DOT": -6.4e-07, "MEAN_MOTION_DDOT": 0}, "tle": {"line1": "1 49809U 21116A   25356.72656109 -.00000064  00000+0  00000+0 0  9997", "line2": "2 49809  57.2174 346.4438 0004410 255.8150 286.3499  1.70475871 25171"}}, "geometry": {"type": "Point", "coordinates": [-22.85938840811122, -14.0095274929566]}}, {"type": "Feature", "properties": {"norad_id": 49810, "name": "GSAT0224 (GALILEO 28)", "group": "gnss", "lat": 56.74658717807315, "lon": 87.0506477211132, "alt_km": 23226.249871929387, "timestamp": "2025-12-24T03:53:29.891693+00:00", "meta": {"OBJECT_NAME": "GSAT0224 (GALILEO 28)", "OBJECT_ID": "2021-116B", "EPOCH": "2025-12-23T03:00:59.528736", "MEAN_MOTION": 1.70475912, "ECCENTRICITY": 0.00037519, "INCLINATION": 57.2181, "RA_OF_ASC_NODE": 346.4317, "ARG_OF_PERICENTER": 260.8078, "MEAN_ANOMALY": 278.9053, "EPHEMERIS_TYPE": 0, "CLASSIFICATION_TYPE": "U", "NORAD_CAT_ID": 49810, "ELEMENT_SET_NO": 999, "REV_AT_EPOCH": 2520, "BSTAR": 0, "MEAN_MOTION_DOT": -6.3e-07, "MEAN_MOTION_DDOT": 0}, "tle": {"line1": "1 49810U 21116B   25357.12568899 -.00000063  00000+0  00000+0 0  9991", "line2": "2 49810  57.2181 346.4317 0003751 260.8078 278.9053  1.70475912 25202"}}, "geometry": {"type": "Point", "coordinates": [87.0506477211132, 56.74658717807315]}}, {"type": "Feature", "properties": {"norad_id": 52984, "name": "COSMOS 2557 (706K)", "group": "gnss", "lat": 56.15952752900194, "lon": 6.233252943546844, "alt_km": 19153.11361122867, "timestamp": "2025-12-24T03:53:29.891709+00:00", "meta": {"OBJECT_NAME": "COSMOS 2557 (706K)", "OBJECT_ID": "2022-075A", "EPOCH": "2025-12-23T03:16:01.928352", "MEAN_MOTION": 2.1310205, "ECCENTRICITY": 0.00135388, "INCLINATION": 64.4039, "RA_OF_ASC_NODE": 320.6862, "ARG_OF_PERICENTER": 278.4196, "MEAN_ANOMALY": 81.425, "EPHEMERIS_TYPE": 0, "CLASSIFICATION_TYPE": "U", "NORAD_CAT_ID": 52984, "ELEMENT_SET_NO": 999, "REV_AT_EPOCH": 2696, "BSTAR": 0, "MEAN_MOTION_DOT": -3.9e-07, "MEAN_MOTION_DDOT": 0}, "tle": {"line1": "1 52984U 22075A   25357.13613343 -.00000039  00000+0  00000+0 0  9991", "line2": "2 52984  64.4039 320.6862 0013538 278.4196  81.4250  2.13102050 26967"}}, "geometry": {"type": "Point", "coordinates": [6.233252943546844, 56.15952752900194]}}]}